RSP-03                  
1 65732U 98067XL  26037.72735522  .00753541  26934-3  14853-2 0  9999
2 65732  51.6170 206.5302 0006539 284.0297  75.9985 15.99425235 22011
YOTSUBA-KULOVER         
1 65941U 98067XN  26037.61328309  .00137879  00000+0  10927-2 0  9990
2 65941  51.6243 217.1343 0003982 238.9577 121.1030 15.70347368 18609
BOTAN                   
1 65942U 98067XP  26037.50565475  .00357545  00000+0  15696-2 0  9998
2 65942  51.6185 214.1233 0005759 263.2850  96.7497 15.83051988 18630
E-KAGAKU-1              
1 65943U 98067XQ  26037.48666354  .00141748  00000+0  11286-2 0  9991
2 65943  51.6264 217.7996 0003336 254.7502 105.3126 15.70223959 18587
HTV-X1                  
1 66174U 25241A   26037.53476767  .00011792  00000+0  22585-3 0  9995
2 66174  51.6316 226.3678 0011132  70.9201 289.2992 15.48439420   516
SHENZHOU-22             
1 66645U 25272A   26037.47343961  .00022506  00000+0  28124-3 0  9994
2 66645  41.4680  37.9008 0005396  13.3696 346.7284 15.59287012267649
SOYUZ-MS 28             
1 66664U 25275A   26037.53476766  .00011792  00000+0  22585-3 0  9995
2 66664  51.6316 226.3678 0011132  70.9201 289.2992 15.48439420551500
DUPLEX                  
1 66906U 98067XS  26037.80513242  .00038685  00000+0  59045-3 0  9995
2 66906  51.6287 223.6757 0001412  82.8545 277.2606 15.54049674 10321
1998-067XT              
1 66907U 98067XT  26037.80199838  .00119560  00000+0  13710-2 0  9997
2 66907  51.6268 222.1534 0002072 208.5279 151.5601 15.61194344 10346
1998-067XU              
1 66908U 98067XU  26037.80145675  .00116976  00000+0  13403-2 0  9995
2 66908  51.6265 222.1476 0001901 209.5042 150.5844 15.61225323 10348
