CCSDS_OMM_VERS = 2.0
CREATION_DATE  = 
ORIGINATOR     = 

OBJECT_NAME    = RSP-03
OBJECT_ID      = 1998-067XL
CENTER_NAME    = EARTH
REF_FRAME      = TEME
TIME_SYSTEM    = UTC
MEAN_ELEMENT_THEORY = SGP/SGP4

EPOCH          = 2026-02-06T17:27:23.491008
MEAN_MOTION    = 15.99425235
ECCENTRICITY   = .0006539
INCLINATION    = 51.6170
RA_OF_ASC_NODE = 206.5302
ARG_OF_PERICENTER = 284.0297
MEAN_ANOMALY   = 75.9985

EPHEMERIS_TYPE = 0
CLASSIFICATION_TYPE = U
NORAD_CAT_ID   = 65732
ELEMENT_SET_NO = 999
REV_AT_EPOCH   = 2201
BSTAR          = .14853E-2
MEAN_MOTION_DOT = .753541E-2
MEAN_MOTION_DDOT = .26934E-3

CCSDS_OMM_VERS = 2.0
CREATION_DATE  = 
ORIGINATOR     = 

OBJECT_NAME    = YOTSUBA-KULOVER
OBJECT_ID      = 1998-067XN
CENTER_NAME    = EARTH
REF_FRAME      = TEME
TIME_SYSTEM    = UTC
MEAN_ELEMENT_THEORY = SGP/SGP4

EPOCH          = 2026-02-06T14:43:07.658976
MEAN_MOTION    = 15.70347368
ECCENTRICITY   = .00039821
INCLINATION    = 51.6243
RA_OF_ASC_NODE = 217.1343
ARG_OF_PERICENTER = 238.9577
MEAN_ANOMALY   = 121.1030

EPHEMERIS_TYPE = 0
CLASSIFICATION_TYPE = U
NORAD_CAT_ID   = 65941
ELEMENT_SET_NO = 999
REV_AT_EPOCH   = 1860
BSTAR          = .10927049E-2
MEAN_MOTION_DOT = .137879E-2
MEAN_MOTION_DDOT = 0

CCSDS_OMM_VERS = 2.0
CREATION_DATE  = 
ORIGINATOR     = 

OBJECT_NAME    = BOTAN
OBJECT_ID      = 1998-067XP
CENTER_NAME    = EARTH
REF_FRAME      = TEME
TIME_SYSTEM    = UTC
MEAN_ELEMENT_THEORY = SGP/SGP4

EPOCH          = 2026-02-06T12:08:08.570400
MEAN_MOTION    = 15.83051988
ECCENTRICITY   = .00057594
INCLINATION    = 51.6185
RA_OF_ASC_NODE = 214.1233
ARG_OF_PERICENTER = 263.2850
MEAN_ANOMALY   = 96.7497

EPHEMERIS_TYPE = 0
CLASSIFICATION_TYPE = U
NORAD_CAT_ID   = 65942
ELEMENT_SET_NO = 999
REV_AT_EPOCH   = 1863
BSTAR          = .15696225E-2
MEAN_MOTION_DOT = .357545E-2
MEAN_MOTION_DDOT = 0

CCSDS_OMM_VERS = 2.0
CREATION_DATE  = 
ORIGINATOR     = 

OBJECT_NAME    = E-KAGAKU-1
OBJECT_ID      = 1998-067XQ
CENTER_NAME    = EARTH
REF_FRAME      = TEME
TIME_SYSTEM    = UTC
MEAN_ELEMENT_THEORY = SGP/SGP4

EPOCH          = 2026-02-06T11:40:47.729856
MEAN_MOTION    = 15.70223959
ECCENTRICITY   = .00033361
INCLINATION    = 51.6264
RA_OF_ASC_NODE = 217.7996
ARG_OF_PERICENTER = 254.7502
MEAN_ANOMALY   = 105.3126

EPHEMERIS_TYPE = 0
CLASSIFICATION_TYPE = U
NORAD_CAT_ID   = 65943
ELEMENT_SET_NO = 999
REV_AT_EPOCH   = 1858
BSTAR          = .11286104E-2
MEAN_MOTION_DOT = .141748E-2
MEAN_MOTION_DDOT = 0

CCSDS_OMM_VERS = 2.0
CREATION_DATE  = 
ORIGINATOR     = 

OBJECT_NAME    = HTV-X1
OBJECT_ID      = 2025-241A
CENTER_NAME    = EARTH
REF_FRAME      = TEME
TIME_SYSTEM    = UTC
MEAN_ELEMENT_THEORY = SGP/SGP4

EPOCH          = 2026-02-06T12:50:03.926688
MEAN_MOTION    = 15.48439420
ECCENTRICITY   = .00111325
INCLINATION    = 51.6316
RA_OF_ASC_NODE = 226.3678
ARG_OF_PERICENTER = 70.9201
MEAN_ANOMALY   = 289.2992

EPHEMERIS_TYPE = 0
CLASSIFICATION_TYPE = U
NORAD_CAT_ID   = 66174
ELEMENT_SET_NO = 999
REV_AT_EPOCH   = 51
BSTAR          = .22584648E-3
MEAN_MOTION_DOT = .11792E-3
MEAN_MOTION_DDOT = 0

CCSDS_OMM_VERS = 2.0
CREATION_DATE  = 
ORIGINATOR     = 

OBJECT_NAME    = SHENZHOU-22
OBJECT_ID      = 2025-272A
CENTER_NAME    = EARTH
REF_FRAME      = TEME
TIME_SYSTEM    = UTC
MEAN_ELEMENT_THEORY = SGP/SGP4

EPOCH          = 2026-02-06T11:21:45.182304
MEAN_MOTION    = 15.59287012
ECCENTRICITY   = .00053968
INCLINATION    = 41.4680
RA_OF_ASC_NODE = 37.9008
ARG_OF_PERICENTER = 13.3696
MEAN_ANOMALY   = 346.7284

EPHEMERIS_TYPE = 0
CLASSIFICATION_TYPE = U
NORAD_CAT_ID   = 66645
ELEMENT_SET_NO = 999
REV_AT_EPOCH   = 26764
BSTAR          = .28124092E-3
MEAN_MOTION_DOT = .22506E-3
MEAN_MOTION_DDOT = 0

CCSDS_OMM_VERS = 2.0
CREATION_DATE  = 
ORIGINATOR     = 

OBJECT_NAME    = SOYUZ-MS 28
OBJECT_ID      = 2025-275A
CENTER_NAME    = EARTH
REF_FRAME      = TEME
TIME_SYSTEM    = UTC
MEAN_ELEMENT_THEORY = SGP/SGP4

EPOCH          = 2026-02-06T12:50:03.925824
MEAN_MOTION    = 15.48439420
ECCENTRICITY   = .0011132
INCLINATION    = 51.6316
RA_OF_ASC_NODE = 226.3678
ARG_OF_PERICENTER = 70.9201
MEAN_ANOMALY   = 289.2992

EPHEMERIS_TYPE = 0
CLASSIFICATION_TYPE = U
NORAD_CAT_ID   = 66664
ELEMENT_SET_NO = 999
REV_AT_EPOCH   = 55150
BSTAR          = .22585E-3
MEAN_MOTION_DOT = .11792E-3
MEAN_MOTION_DDOT = 0

CCSDS_OMM_VERS = 2.0
CREATION_DATE  = 
ORIGINATOR     = 

OBJECT_NAME    = DUPLEX
OBJECT_ID      = 1998-067XS
CENTER_NAME    = EARTH
REF_FRAME      = TEME
TIME_SYSTEM    = UTC
MEAN_ELEMENT_THEORY = SGP/SGP4

EPOCH          = 2026-02-06T19:19:23.441088
MEAN_MOTION    = 15.54049674
ECCENTRICITY   = .0001412
INCLINATION    = 51.6287
RA_OF_ASC_NODE = 223.6757
ARG_OF_PERICENTER = 82.8545
MEAN_ANOMALY   = 277.2606

EPHEMERIS_TYPE = 0
CLASSIFICATION_TYPE = U
NORAD_CAT_ID   = 66906
ELEMENT_SET_NO = 999
REV_AT_EPOCH   = 1032
BSTAR          = .59045E-3
MEAN_MOTION_DOT = .38685E-3
MEAN_MOTION_DDOT = 0

CCSDS_OMM_VERS = 2.0
CREATION_DATE  = 
ORIGINATOR     = 

OBJECT_NAME    = 1998-067XT
OBJECT_ID      = 1998-067XT
CENTER_NAME    = EARTH
REF_FRAME      = TEME
TIME_SYSTEM    = UTC
MEAN_ELEMENT_THEORY = SGP/SGP4

EPOCH          = 2026-02-06T19:14:52.660032
MEAN_MOTION    = 15.61194344
ECCENTRICITY   = .0002072
INCLINATION    = 51.6268
RA_OF_ASC_NODE = 222.1534
ARG_OF_PERICENTER = 208.5279
MEAN_ANOMALY   = 151.5601

EPHEMERIS_TYPE = 0
CLASSIFICATION_TYPE = U
NORAD_CAT_ID   = 66907
ELEMENT_SET_NO = 999
REV_AT_EPOCH   = 1034
BSTAR          = .1371E-2
MEAN_MOTION_DOT = .11956E-2
MEAN_MOTION_DDOT = 0

CCSDS_OMM_VERS = 2.0
CREATION_DATE  = 
ORIGINATOR     = 

OBJECT_NAME    = 1998-067XU
OBJECT_ID      = 1998-067XU
CENTER_NAME    = EARTH
REF_FRAME      = TEME
TIME_SYSTEM    = UTC
MEAN_ELEMENT_THEORY = SGP/SGP4

EPOCH          = 2026-02-06T19:14:05.863200
MEAN_MOTION    = 15.61225323
ECCENTRICITY   = .0001901
INCLINATION    = 51.6265
RA_OF_ASC_NODE = 222.1476
ARG_OF_PERICENTER = 209.5042
MEAN_ANOMALY   = 150.5844

EPHEMERIS_TYPE = 0
CLASSIFICATION_TYPE = U
NORAD_CAT_ID   = 66908
ELEMENT_SET_NO = 999
REV_AT_EPOCH   = 1034
BSTAR          = .13403E-2
MEAN_MOTION_DOT = .116976E-2
MEAN_MOTION_DDOT = 0

